OBJECT_NAME,OBJECT_ID,EPOCH,MEAN_MOTION,ECCENTRICITY,INCLINATION,RA_OF_ASC_NODE,ARG_OF_PERICENTER,MEAN_ANOMALY,EPHEMERIS_TYPE,CLASSIFICATION_TYPE,NORAD_CAT_ID,ELEMENT_SET_NO,REV_AT_EPOCH,BSTAR,MEAN_MOTION_DOT,MEAN_MOTION_DDOT
KANOPUS-V-IK,2017-042A,2026-06-03T22:53:02.164992,15.22915356,.00018706,97.3589,60.7466,84.6334,275.5117,0,U,42825,999,49335,.11597859E-3,.2651E-4,0
NORSAT 1,2017-042B,2026-06-03T11:01:46.860096,15.13902138,.00084601,97.4438,322.4843,124.9821,235.2206,0,U,42826,999,48515,.40359655E-3,.725E-4,0
NORSAT 2,2017-042D,2026-06-03T11:34:32.930976,15.21640002,.00110306,97.4033,328.1436,99.9597,260.2884,0,U,42828,999,48565,.55740368E-3,.12555E-3,0
TECHNOSAT,2017-042E,2026-06-03T18:02:20.317056,15.04873630,.00189839,97.4274,312.9235,136.0818,224.1922,0,U,42829,999,48468,.23544048E-3,.3283E-4,0
FLYING LAPTOP,2017-042G,2026-06-03T22:05:09.802176,15.01057120,.00187599,97.4636,310.9691,165.1788,194.9990,0,U,42831,999,48446,.45877449E-3,.583E-4,0
WNISAT 1R,2017-042L,2026-06-03T05:34:50.294784,15.01697093,.0009589,97.4828,310.8549,198.2652,161.8230,0,U,42835,999,48441,.22141E-3,.2823E-4,0
LEMUR-2-GREENBERG,2017-042N,2026-06-03T11:50:28.069152,15.30877097,.000976,97.3812,335.1863,60.5923,299.6292,0,U,42837,999,48629,.60406E-3,.17995E-3,0
LEMUR-2-ANDIS,2017-042P,2026-06-03T11:43:07.232160,15.34265628,.00093341,97.3674,335.3193,60.3374,299.8797,0,U,42838,999,48635,.7017506E-3,.23274E-3,0
LEMUR-2-MONSON,2017-042Q,2026-06-03T17:38:00.759264,15.27631553,.000742,97.4072,335.4184,51.6245,308.5660,0,U,42839,999,48611,.62000035E-3,.16706E-3,0
LEMUR-2-FURIAUS,2017-042R,2026-06-03T11:27:27.969984,15.29771695,.00086414,97.3767,333.1571,110.8985,249.3182,0,U,42840,999,48611,.68161825E-3,.19631E-3,0
LEMUR-2-PETERG,2017-042S,2026-06-03T11:07:59.353824,15.33294730,.00043229,97.3985,339.4785,45.9845,314.1753,0,U,42841,999,48633,.83920635E-3,.26992E-3,0
LEMUR-2-DEMBITZ,2017-042T,2026-06-03T11:56:54.119904,15.29861497,.0007786,97.3820,336.1898,72.8986,287.3107,0,U,42842,999,48625,.65539E-3,.18919E-3,0
NANOACE,2017-042V,2026-06-03T10:38:50.586720,15.24212663,.00054151,97.3734,328.9462,72.6682,287.5147,0,U,42844,999,48598,.56819902E-3,.13798E-3,0
LEMUR-2-ZACHARY,2017-042W,2026-06-03T12:01:02.507808,15.49027790,.0003838,97.3611,345.8581,77.7019,282.4661,0,U,42845,999,48708,.87678E-3,.47625E-3,0
CORVUS BC2,2017-042X,2026-06-03T10:38:33.299808,15.06206681,.0013888,97.4063,316.3297,152.5583,207.6381,0,U,42846,999,48499,.27172268E-3,.3931E-4,0
CORVUS BC1,2017-042Y,2026-06-03T10:33:01.562688,15.06376199,.0013343,97.4093,317.1310,130.6661,229.5729,0,U,42847,999,48502,.25206892E-3,.3659E-4,0
COSMOS 2520,2017-046A,2026-06-03T18:17:15.910944,1.00271036,.00013641,0.0458,87.0370,35.2254,89.3290,0,U,42907,999,3226,0,.149E-5,0
TDRS 13,2017-047A,2026-06-03T22:06:27.532800,1.00272574,.00146804,3.4483,2.3978,103.9415,106.2066,0,U,42915,999,3221,0,-.89E-6,0
QZS-3 (MICHIBIKI-3),2017-048A,2026-06-03T21:03:17.786880,1.00272585,.00028892,0.0614,197.0452,245.2093,252.9383,0,U,42917,999,3212,0,-.336E-5,0
FORMOSAT-5,2017-049A,2026-06-03T21:08:27.998304,14.50893525,.00125563,98.2254,230.4860,121.1505,239.0923,0,U,42920,999,46474,.65026169E-4,.213E-5,0
ORS-5 SENSORSAT,2017-050A,2026-06-03T21:25:56.619552,15.00851393,.00105693,0.0461,249.2398,219.8934,250.9812,0,U,42921,999,47904,.17137409E-3,.3078E-4,0
AMAZONAS 5,2017-053A,2026-06-03T18:27:01.792800,1.00272382,.00029344,0.0313,323.6569,63.6623,80.6730,0,U,42934,999,3191,0,-.271E-5,0
COSMOS 2522 [GLONASS-M],2017-055A,2026-06-02T02:33:39.225600,2.13102000,.00105132,64.0774,192.3978,239.6203,120.3566,0,U,42939,999,6765,0,.7E-6,0
ASIASAT 9,2017-057A,2026-06-03T22:44:31.490016,1.00272832,.00024026,0.0035,352.9113,74.8112,287.9137,0,U,42942,999,3172,0,-.348E-5,0
YAOGAN-30 02A,2017-058A,2026-06-03T20:27:49.061952,15.03035049,.00016325,34.9966,110.5842,3.8990,356.1731,0,U,42945,999,47388,.23793292E-3,.3242E-4,0
YAOGAN-30 02B,2017-058B,2026-06-03T20:19:56.184384,15.02748558,.0002689,34.9966,111.4651,217.7168,142.3352,0,U,42946,999,47385,.22449202E-3,.3034E-4,0
YAOGAN-30 02C,2017-058C,2026-06-03T20:42:37.408608,15.04434231,.0003719,34.9963,102.1217,93.3311,266.7823,0,U,42947,999,47381,.26872956E-3,.3806E-4,0
INTELSAT 37E (IS-37E),2017-059A,2026-06-03T22:04:35.212800,1.00272994,.00026801,0.0258,65.8997,18.6874,120.9483,0,U,42950,999,3193,0,-.128E-5,0
BSAT-4A,2017-059B,2026-06-03T20:58:25.754016,1.00271585,.00045538,0.0423,22.2183,42.8517,251.7065,0,U,42951,999,3166,0,-.338E-5,0
VRSS-2,2017-060A,2026-06-03T22:42:41.109696,14.81172894,.00179883,97.6514,193.2689,138.9300,221.3272,0,U,42954,999,46649,.18302327E-3,.1377E-4,0
