KANOPUS-V-IK            
1 42825U 17042A   26154.95349728  .00002651  00000+0  11598-3 0  9990
2 42825  97.3589  60.7466 0001870  84.6334 275.5117 15.22915356493358
NORSAT 1                
1 42826U 17042B   26154.45957014  .00007250  00000+0  40360-3 0  9998
2 42826  97.4438 322.4843 0008460 124.9821 235.2206 15.13902138485156
NORSAT 2                
1 42828U 17042D   26154.48232559  .00012555  00000+0  55740-3 0  9995
2 42828  97.4033 328.1436 0011030  99.9597 260.2884 15.21640002485651
TECHNOSAT               
1 42829U 17042E   26154.75162404  .00003283  00000+0  23544-3 0  9992
2 42829  97.4274 312.9235 0018983 136.0818 224.1922 15.04873630484680
FLYING LAPTOP           
1 42831U 17042G   26154.92025234  .00005830  00000+0  45877-3 0  9996
2 42831  97.4636 310.9691 0018759 165.1788 194.9990 15.01057120484469
WNISAT 1R               
1 42835U 17042L   26154.23252656  .00002823  00000+0  22141-3 0  9992
2 42835  97.4828 310.8549 0009589 198.2652 161.8230 15.01697093484419
LEMUR-2-GREENBERG       
1 42837U 17042N   26154.49338043  .00017995  00000+0  60406-3 0  9999
2 42837  97.3812 335.1863 0009760  60.5923 299.6292 15.30877097486297
LEMUR-2-ANDIS           
1 42838U 17042P   26154.48827815  .00023274  00000+0  70175-3 0  9990
2 42838  97.3674 335.3193 0009334  60.3374 299.8797 15.34265628486351
LEMUR-2-MONSON          
1 42839U 17042Q   26154.73473101  .00016706  00000+0  62000-3 0  9994
2 42839  97.4072 335.4184 0007420  51.6245 308.5660 15.27631553486117
LEMUR-2-FURIAUS         
1 42840U 17042R   26154.47740706  .00019631  00000+0  68162-3 0  9990
2 42840  97.3767 333.1571 0008641 110.8985 249.3182 15.29771695486114
LEMUR-2-PETERG          
1 42841U 17042S   26154.46388141  .00026992  00000+0  83921-3 0  9999
2 42841  97.3985 339.4785 0004322  45.9845 314.1753 15.33294730486332
LEMUR-2-DEMBITZ         
1 42842U 17042T   26154.49784861  .00018919  00000+0  65539-3 0  9997
2 42842  97.3820 336.1898 0007786  72.8986 287.3107 15.29861497486252
NANOACE                 
1 42844U 17042V   26154.44364105  .00013798  00000+0  56820-3 0  9992
2 42844  97.3734 328.9462 0005415  72.6682 287.5147 15.24212663485987
LEMUR-2-ZACHARY         
1 42845U 17042W   26154.50072347  .00047625  00000+0  87678-3 0  9995
2 42845  97.3611 345.8581 0003838  77.7019 282.4661 15.49027790487089
CORVUS BC2              
1 42846U 17042X   26154.44344097  .00003931  00000+0  27172-3 0  9998
2 42846  97.4063 316.3297 0013888 152.5583 207.6381 15.06206681484999
CORVUS BC1              
1 42847U 17042Y   26154.43960142  .00003659  00000+0  25207-3 0  9997
2 42847  97.4093 317.1310 0013343 130.6661 229.5729 15.06376199485024
COSMOS 2520             
1 42907U 17046A   26154.76198971  .00000149  00000+0  00000+0 0  9998
2 42907   0.0458  87.0370 0001364  35.2254  89.3290  1.00271036 32265
TDRS 13                 
1 42915U 17047A   26154.92115200 -.00000089  00000+0  00000+0 0  9994
2 42915   3.4483   2.3978 0014680 103.9415 106.2066  1.00272574 32213
QZS-3 (MICHIBIKI-3)     
1 42917U 17048A   26154.87728920 -.00000336  00000+0  00000+0 0  9995
2 42917   0.0614 197.0452 0002889 245.2093 252.9383  1.00272585 32126
FORMOSAT-5              
1 42920U 17049A   26154.88087961  .00000213  00000+0  65026-4 0  9991
2 42920  98.2254 230.4860 0012556 121.1505 239.0923 14.50893525464741
ORS-5 SENSORSAT         
1 42921U 17050A   26154.89301643  .00003078  00000+0  17137-3 0  9992
2 42921   0.0461 249.2398 0010569 219.8934 250.9812 15.00851393479041
AMAZONAS 5              
1 42934U 17053A   26154.76877075 -.00000271  00000+0  00000+0 0  9992
2 42934   0.0313 323.6569 0002934  63.6623  80.6730  1.00272382 31912
COSMOS 2522 [GLONASS-M] 
1 42939U 17055A   26153.10670400  .00000070  00000+0  00000+0 0  9995
2 42939  64.0774 192.3978 0010513 239.6203 120.3566  2.13102000 67657
ASIASAT 9               
1 42942U 17057A   26154.94758669 -.00000348  00000+0  00000+0 0  9997
2 42942   0.0035 352.9113 0002402  74.8112 287.9137  1.00272832 31721
YAOGAN-30 02A           
1 42945U 17058A   26154.85265118  .00003242  00000+0  23793-3 0  9996
2 42945  34.9966 110.5842 0001632   3.8990 356.1731 15.03035049473881
YAOGAN-30 02B           
1 42946U 17058B   26154.84717806  .00003034  00000+0  22449-3 0  9998
2 42946  34.9966 111.4651 0002689 217.7168 142.3352 15.02748558473852
YAOGAN-30 02C           
1 42947U 17058C   26154.86293297  .00003806  00000+0  26873-3 0  9996
2 42947  34.9963 102.1217 0003719  93.3311 266.7823 15.04434231473810
INTELSAT 37E (IS-37E)   
1 42950U 17059A   26154.91985200 -.00000128  00000+0  00000+0 0  9994
2 42950   0.0258  65.8997 0002680  18.6874 120.9483  1.00272994 31938
BSAT-4A                 
1 42951U 17059B   26154.87390919 -.00000338  00000+0  00000+0 0  9990
2 42951   0.0423  22.2183 0004553  42.8517 251.7065  1.00271585 31665
VRSS-2                  
1 42954U 17060A   26154.94630914  .00001377  00000+0  18302-3 0  9996
2 42954  97.6514 193.2689 0017988 138.9300 221.3272 14.81172894466496
